IRIDIUM 144             
1 43249U 18030A   24362.71068417  .00000146  00000+0  44952-4 0  9993
2 43249  86.3991 154.6731 0001804  97.6275 262.5125 14.34218866353249
IRIDIUM 149             
1 43250U 18030B   24362.85656632  .00000181  00000+0  57675-4 0  9997
2 43250  86.3991 154.5853 0002080  97.4210 262.7222 14.34218381353285
IRIDIUM 157             
1 43251U 18030C   24362.94535727  .00000311  00000+0  10406-3 0  9994
2 43251  86.3992 154.5894 0002203  92.6931 267.4517 14.34215687353270
IRIDIUM 140             
1 43252U 18030D   24362.47600205 -.00000365  00000+0 -13752-3 0  9995
2 43252  86.3990 154.7993 0001928  94.0507 266.0909 14.34219984353262
IRIDIUM 145             
1 43253U 18030E   24362.95169300  .00000819  00000+0  28540-3 0  9998
2 43253  86.3992 154.5740 0001831 104.6865 255.4534 14.34224981353260
IRIDIUM 146             
1 43254U 18030F   24362.86290766  .00000223  00000+0  72614-4 0  9991
2 43254  86.3990 154.6252 0001893 102.9492 257.1915 14.34218634353263
IRIDIUM 148             
1 43255U 18030G   24362.83119128  .00000457  00000+0  15620-3 0  9993
2 43255  86.3992 154.6733 0002084  99.2198 260.9233 14.34220981353290
IRIDIUM 142             
1 43256U 18030H   24362.79948041 -.00000145  00000+0 -58931-4 0  9992
2 43256  86.3994 154.5955 0001916 107.5321 252.6084 14.34219836353257
